{
    "CCSDS_OMM_VERS": "3.0",
    "COMMENT": "GENERATED VIA SPACE-TRACK.ORG API",
    "CREATION_DATE": "2025-11-23T14:36:21",
    "ORIGINATOR": "18 SPCS",
    "OBJECT_NAME": "BEIDOU 3M11",
    "OBJECT_ID": "2018-067A",
    "CENTER_NAME": "EARTH",
    "REF_FRAME": "TEME",
    "TIME_SYSTEM": "UTC",
    "MEAN_ELEMENT_THEORY": "SGP4",
    "EPOCH": "2025-11-23T06:05:40.174080",
    "MEAN_MOTION": "1.86227746",
    "ECCENTRICITY": "0.00090860",
    "INCLINATION": "54.1831",
    "RA_OF_ASC_NODE": "188.0249",
    "ARG_OF_PERICENTER": "39.5062",
    "MEAN_ANOMALY": "320.6579",
    "EPHEMERIS_TYPE": "0",
    "CLASSIFICATION_TYPE": "U",
    "NORAD_CAT_ID": "43602",
    "ELEMENT_SET_NO": "999",
    "REV_AT_EPOCH": "4928",
    "BSTAR": "0.00000000000000",
    "MEAN_MOTION_DOT": "0.00000069",
    "MEAN_MOTION_DDOT": "0.0000000000000",
    "SEMIMAJOR_AXIS": "27906.514",
    "PERIOD": "773.247",
    "APOAPSIS": "21553.734",
    "PERIAPSIS": "21503.023",
    "OBJECT_TYPE": "PAYLOAD",
    "RCS_SIZE": "LARGE",
    "COUNTRY_CODE": "PRC",
    "LAUNCH_DATE": "2018-08-24",
    "SITE": "XSC",
    "DECAY_DATE": null,
    "FILE": "4895761",
    "GP_ID": "303305826",
    "TLE_LINE0": "0 BEIDOU 3M11",
    "TLE_LINE1": "1 43602U 18067A   25327.25393720  .00000069  00000-0  00000+0 0  9991",
    "TLE_LINE2": "2 43602  54.1831 188.0249 0009086  39.5062 320.6579  1.86227746 49287"
}